{"type": "FeatureCollection", "features": [ {"type": "Feature", "properties": {"norad_id": 66808, "name": "STARLINK-36071", "group": "last-30-days", "lat": -42.939054971531434, "lon": 110.68194275341322, "alt_km": 385.45344389428556, "timestamp": "2025-12-20T16:47:35.024145+00:00", "meta": {"OBJECT_NAME": "STARLINK-36071", "OBJECT_ID": "2025-278T", "EPOCH": "2025-12-20T12:00:02.000160", "MEAN_MOTION": 15.62421826, "ECCENTRICITY": 0.0001304, "INCLINATION": 42.9998, "RA_OF_ASC_NODE": 204.9054, "ARG_OF_PERICENTER": 255.823, "MEAN_ANOMALY": 327.712, "EPHEMERIS_TYPE": 0, "CLASSIFICATION_TYPE": "U", "NORAD_CAT_ID": 66808, "ELEMENT_SET_NO": 999, "REV_AT_EPOCH": 420, "BSTAR": -0.023996, "MEAN_MOTION_DOT": -0.01932572, "MEAN_MOTION_DDOT": 0}, "tle": {"line1": "1 66808U 25278T   25354.50002315 -.01932572  00000+0 -23996-1 0  9997", "line2": "2 66808  42.9998 204.9054 0001304 255.8230 327.7120 15.62421826  4203"}}, "geometry": {"type": "Point", "coordinates": [110.68194275341322, -42.939054971531434]}}, {"type": "Feature", "properties": {"norad_id": 66809, "name": "STARLINK-35979", "group": "last-30-days", "lat": -42.87813743633094, "lon": 118.5094425952341, "alt_km": 385.4503541960812, "timestamp": "2025-12-20T16:47:35.024160+00:00", "meta": {"OBJECT_NAME": "STARLINK-35979", "OBJECT_ID": "2025-278U", "EPOCH": "2025-12-20T12:00:02.000160", "MEAN_MOTION": 15.62419852, "ECCENTRICITY": 0.0001353, "INCLINATION": 42.9995, "RA_OF_ASC_NODE": 204.8898, "ARG_OF_PERICENTER": 255.0643, "MEAN_ANOMALY": 334.2216, "EPHEMERIS_TYPE": 0, "CLASSIFICATION_TYPE": "U", "NORAD_CAT_ID": 66809, "ELEMENT_SET_NO": 999, "REV_AT_EPOCH": 420, "BSTAR": -0.023946, "MEAN_MOTION_DOT": -0.0192895, "MEAN_MOTION_DDOT": 0}, "tle": {"line1": "1 66809U 25278U   25354.50002315 -.01928950  00000+0 -23946-1 0  9998", "line2": "2 66809  42.9995 204.8898 0001353 255.0643 334.2216 15.62419852  4205"}}, "geometry": {"type": "Point", "coordinates": [118.5094425952341, -42.87813743633094]}}, {"type": "Feature", "properties": {"norad_id": 66810, "name": "STARLINK-36046", "group": "last-30-days", "lat": -42.97789820717826, "lon": 113.29291038403878, "alt_km": 385.4234180171643, "timestamp": "2025-12-20T16:47:35.024170+00:00", "meta": {"OBJECT_NAME": "STARLINK-36046", "OBJECT_ID": "2025-278V", "EPOCH": "2025-12-20T12:00:02.000160", "MEAN_MOTION": 15.62427087, "ECCENTRICITY": 0.0001378, "INCLINATION": 42.9993, "RA_OF_ASC_NODE": 204.9006, "ARG_OF_PERICENTER": 252.4579, "MEAN_ANOMALY": 332.9903, "EPHEMERIS_TYPE": 0, "CLASSIFICATION_TYPE": "U", "NORAD_CAT_ID": 66810, "ELEMENT_SET_NO": 999, "REV_AT_EPOCH": 397, "BSTAR": -0.024073, "MEAN_MOTION_DOT": -0.01938444, "MEAN_MOTION_DDOT": 0}, "tle": {"line1": "1 66810U 25278V   25354.50002315 -.01938444  00000+0 -24073-1 0  9991", "line2": "2 66810  42.9993 204.9006 0001378 252.4579 332.9903 15.62427087  3973"}}, "geometry": {"type": "Point", "coordinates": [113.29291038403878, -42.97789820717826]}}, {"type": "Feature", "properties": {"norad_id": 66811, "name": "STARLINK-36045", "group": "last-30-days", "lat": -42.957755738877616, "lon": 115.90402685994772, "alt_km": 385.47655614636915, "timestamp": "2025-12-20T16:47:35.024181+00:00", "meta": {"OBJECT_NAME": "STARLINK-36045", "OBJECT_ID": "2025-278W", "EPOCH": "2025-12-20T12:00:02.000160", "MEAN_MOTION": 15.62421162, "ECCENTRICITY": 0.0001326, "INCLINATION": 42.9994, "RA_OF_ASC_NODE": 204.8958, "ARG_OF_PERICENTER": 252.1489, "MEAN_ANOMALY": 335.219, "EPHEMERIS_TYPE": 0, "CLASSIFICATION_TYPE": "U", "NORAD_CAT_ID": 66811, "ELEMENT_SET_NO": 999, "REV_AT_EPOCH": 420, "BSTAR": -0.023969, "MEAN_MOTION_DOT": -0.01930632, "MEAN_MOTION_DDOT": 0}, "tle": {"line1": "1 66811U 25278W   25354.50002315 -.01930632  00000+0 -23969-1 0  9996", "line2": "2 66811  42.9994 204.8958 0001326 252.1489 335.2190 15.62421162  4209"}}, "geometry": {"type": "Point", "coordinates": [115.90402685994772, -42.957755738877616]}}, {"type": "Feature", "properties": {"norad_id": 66812, "name": "STARLINK-36054", "group": "last-30-days", "lat": -42.73877596490209, "lon": 121.10925882796741, "alt_km": 385.48385747365955, "timestamp": "2025-12-20T16:47:35.024191+00:00", "meta": {"OBJECT_NAME": "STARLINK-36054", "OBJECT_ID": "2025-278X", "EPOCH": "2025-12-20T12:00:02.000160", "MEAN_MOTION": 15.62420419, "ECCENTRICITY": 0.0001333, "INCLINATION": 42.9991, "RA_OF_ASC_NODE": 204.8861, "ARG_OF_PERICENTER": 252.9058, "MEAN_ANOMALY": 338.2968, "EPHEMERIS_TYPE": 0, "CLASSIFICATION_TYPE": "U", "NORAD_CAT_ID": 66812, "ELEMENT_SET_NO": 999, "REV_AT_EPOCH": 420, "BSTAR": -0.023956, "MEAN_MOTION_DOT": -0.01929663, "MEAN_MOTION_DDOT": 0}, "tle": {"line1": "1 66812U 25278X   25354.50002315 -.01929663  00000+0 -23956-1 0  9995", "line2": "2 66812  42.9991 204.8861 0001333 252.9058 338.2968 15.62420419  4208"}}, "geometry": {"type": "Point", "coordinates": [121.10925882796741, -42.73877596490209]}}, {"type": "Feature", "properties": {"norad_id": 66813, "name": "STARLINK-36042", "group": "last-30-days", "lat": -42.54145290382444, "lon": 123.69220009369961, "alt_km": 385.5117932278581, "timestamp": "2025-12-20T16:47:35.024201+00:00", "meta": {"OBJECT_NAME": "STARLINK-36042", "OBJECT_ID": "2025-278Y", "EPOCH": "2025-12-20T12:00:02.000160", "MEAN_MOTION": 15.62418625, "ECCENTRICITY": 0.0001267, "INCLINATION": 42.9993, "RA_OF_ASC_NODE": 204.8808, "ARG_OF_PERICENTER": 255.7878, "MEAN_ANOMALY": 337.3333, "EPHEMERIS_TYPE": 0, "CLASSIFICATION_TYPE": "U", "NORAD_CAT_ID": 66813, "ELEMENT_SET_NO": 999, "REV_AT_EPOCH": 420, "BSTAR": -0.023913, "MEAN_MOTION_DOT": -0.01926485, "MEAN_MOTION_DDOT": 0}, "tle": {"line1": "1 66813U 25278Y   25354.50002315 -.01926485  00000+0 -23913-1 0  9998", "line2": "2 66813  42.9993 204.8808 0001267 255.7878 337.3333 15.62418625  4201"}}, "geometry": {"type": "Point", "coordinates": [123.69220009369961, -42.54145290382444]}}, {"type": "Feature", "properties": {"norad_id": 66814, "name": "STARLINK-35984", "group": "last-30-days", "lat": -40.18148917850402, "lon": 138.6630336400542, "alt_km": 385.4760355500066, "timestamp": "2025-12-20T16:47:35.024211+00:00", "meta": {"OBJECT_NAME": "STARLINK-35984", "OBJECT_ID": "2025-278Z", "EPOCH": "2025-12-20T12:00:02.000160", "MEAN_MOTION": 15.62421223, "ECCENTRICITY": 0.0001403, "INCLINATION": 42.9992, "RA_OF_ASC_NODE": 204.8515, "ARG_OF_PERICENTER": 250.7212, "MEAN_ANOMALY": 353.898, "EPHEMERIS_TYPE": 0, "CLASSIFICATION_TYPE": "U", "NORAD_CAT_ID": 66814, "ELEMENT_SET_NO": 999, "REV_AT_EPOCH": 429, "BSTAR": -0.023934, "MEAN_MOTION_DOT": -0.01928217, "MEAN_MOTION_DDOT": 0}, "tle": {"line1": "1 66814U 25278Z   25354.50002315 -.01928217  00000+0 -23934-1 0  9997", "line2": "2 66814  42.9992 204.8515 0001403 250.7212 353.8980 15.62421223  4293"}}, "geometry": {"type": "Point", "coordinates": [138.6630336400542, -40.18148917850402]}}, {"type": "Feature", "properties": {"norad_id": 66815, "name": "STARLINK-35985", "group": "last-30-days", "lat": -40.707680717866104, "lon": 136.25173568516567, "alt_km": 385.4409913891195, "timestamp": "2025-12-20T16:47:35.024221+00:00", "meta": {"OBJECT_NAME": "STARLINK-35985", "OBJECT_ID": "2025-278AA", "EPOCH": "2025-12-20T12:00:02.000160", "MEAN_MOTION": 15.62426595, "ECCENTRICITY": 0.0001443, "INCLINATION": 42.9995, "RA_OF_ASC_NODE": 204.8559, "ARG_OF_PERICENTER": 251.8107, "MEAN_ANOMALY": 350.892, "EPHEMERIS_TYPE": 0, "CLASSIFICATION_TYPE": "U", "NORAD_CAT_ID": 66815, "ELEMENT_SET_NO": 999, "REV_AT_EPOCH": 429, "BSTAR": -0.024081, "MEAN_MOTION_DOT": -0.01939044, "MEAN_MOTION_DDOT": 0}, "tle": {"line1": "1 66815U 25278AA  25354.50002315 -.01939044  00000+0 -24081-1 0  9992", "line2": "2 66815  42.9995 204.8559 0001443 251.8107 350.8920 15.62426595  4292"}}, "geometry": {"type": "Point", "coordinates": [136.25173568516567, -40.707680717866104]}}, {"type": "Feature", "properties": {"norad_id": 66816, "name": "STARLINK-36098", "group": "last-30-days", "lat": -42.285938212180646, "lon": 126.25839854779157, "alt_km": 385.46476528106814, "timestamp": "2025-12-20T16:47:35.024234+00:00", "meta": {"OBJECT_NAME": "STARLINK-36098", "OBJECT_ID": "2025-278AB", "EPOCH": "2025-12-20T12:00:02.000160", "MEAN_MOTION": 15.62419078, "ECCENTRICITY": 0.000137, "INCLINATION": 42.9993, "RA_OF_ASC_NODE": 204.8761, "ARG_OF_PERICENTER": 253.9287, "MEAN_ANOMALY": 341.1091, "EPHEMERIS_TYPE": 0, "CLASSIFICATION_TYPE": "U", "NORAD_CAT_ID": 66816, "ELEMENT_SET_NO": 999, "REV_AT_EPOCH": 404, "BSTAR": -0.023939, "MEAN_MOTION_DOT": -0.01928426, "MEAN_MOTION_DDOT": 0}, "tle": {"line1": "1 66816U 25278AB  25354.50002315 -.01928426  00000+0 -23939-1 0  9996", "line2": "2 66816  42.9993 204.8761 0001370 253.9287 341.1091 15.62419078  4040"}}, "geometry": {"type": "Point", "coordinates": [126.25839854779157, -42.285938212180646]}}, {"type": "Feature", "properties": {"norad_id": 66817, "name": "STARLINK-35995", "group": "last-30-days", "lat": -41.60538077376368, "lon": 131.31618170691917, "alt_km": 385.46758174759907, "timestamp": "2025-12-20T16:47:35.024264+00:00", "meta": {"OBJECT_NAME": "STARLINK-35995", "OBJECT_ID": "2025-278AC", "EPOCH": "2025-12-20T12:00:02.000160", "MEAN_MOTION": 15.62421431, "ECCENTRICITY": 0.0001374, "INCLINATION": 42.9993, "RA_OF_ASC_NODE": 204.8657, "ARG_OF_PERICENTER": 253.6731, "MEAN_ANOMALY": 345.1986, "EPHEMERIS_TYPE": 0, "CLASSIFICATION_TYPE": "U", "NORAD_CAT_ID": 66817, "ELEMENT_SET_NO": 999, "REV_AT_EPOCH": 420, "BSTAR": -0.023993, "MEAN_MOTION_DOT": -0.01932401, "MEAN_MOTION_DDOT": 0}, "tle": {"line1": "1 66817U 25278AC  25354.50002315 -.01932401  00000+0 -23993-1 0  9995", "line2": "2 66817  42.9993 204.8657 0001374 253.6731 345.1986 15.62421431  4201"}}, "geometry": {"type": "Point", "coordinates": [131.31618170691917, -41.60538077376368]}}]}